GLOBALSTAR M024         
1 25883U 99043A   25126.24613095  .00000015  00000+0  28321-2 0  9990
2 25883  51.9980 115.2532 0001528  22.1719  72.0857 11.10165777110239
GLOBALSTAR M027         
1 25884U 99043B   25125.86462529 -.00000089  00000+0 -96969-3 0  9999
2 25884  52.0190 192.9013 0021292 282.0763  77.7644 11.04371889136563
GLOBALSTAR M054         
1 25885U 99043C   25126.52496175 -.00000027  00000+0  11372-2 0  9993
2 25885  52.0154 325.7223 0006694 101.0470 271.6407 11.39212773114637
GLOBALSTAR M053         
1 25886U 99043D   25125.90590590 -.00000073  00000+0 -13514-3 0  9994
2 25886  51.9984 271.9523 0002980  23.0169 146.5969 11.27664883114817
GLOBALSTAR M058         
1 25907U 99049A   25126.50747790 -.00000045  00000+0  52632-3 0  9999
2 25907  51.9934 220.4712 0002366 178.7162 181.3679 11.93198088147772
GLOBALSTAR M050         
1 25908U 99049B   25125.57127429 -.00000133  00000+0 -50367-3 0  9999
2 25908  51.9986 233.8301 0008504 305.6004  67.7868 12.07452610143041
GLOBALSTAR M033         
1 25909U 99049C   25125.67525226 -.00000026  00000+0  63141-3 0  9992
2 25909  51.9888 108.3100 0013429 174.8959 185.2027 12.20291177530556
GLOBALSTAR M055         
1 25910U 99049D   25126.46844199 -.00000056  00000+0  32630-3 0  9997
2 25910  51.9993 118.8584 0007120  44.5187 315.6236 12.29427026163370
